IDEFIX & ARIANE 42P R/B 
1 27422U 02021B   26011.78993503  .00000291  00000+0  12728-3 0  9990
2 27422  98.5816 311.0963 0011923   0.6842 359.4355 14.30977277235882
AQUA                    
1 27424U 02022A   26011.93923927  .00001110  00000+0  23211-3 0  9993
2 27424  98.4078 338.3153 0002029  81.9924 314.0623 14.61816932260445
CZ-4B R/B               
1 27432U 02024C   26011.99204757  .00000037  00000+0  42177-4 0  9993
2 27432  98.8954  65.6516 0050163 182.9649 245.7601 14.14535200221225
MIDORI II (ADEOS-II)    
1 27597U 02056A   26011.88887382  .00000354  00000+0  15716-3 0  9999
2 27597  98.7677 330.0102 0001567 123.2737 236.8595 14.29233688202186
H-2A R/B                
1 27601U 02056E   26011.90038425  .00000400  00000+0  15506-3 0  9993
2 27601  98.3106 334.4637 0069789 331.7693  92.0792 14.33709714205977
CZ-4B R/B               
1 28059U 03049C   26011.99287841  .00000484  00000+0  12244-3 0  9999
2 28059  98.6813   4.7040 0049070  45.6871 314.8333 14.54946113178354
CZ-2C R/B               
1 28222U 04012C   26011.88548650  .00047933  00000+0  62930-3 0  9995
2 28222  97.7371  72.0476 0016944 156.7617 203.4407 15.58219429195411
SL-16 R/B               
1 28353U 04021B   26011.95752516  .00000103  00000+0  78619-4 0  9996
2 28353  71.0026 351.5490 0003310 149.6573 210.4742 14.14592295114815
CZ-4B R/B               
1 28415U 04035C   26011.56158285  .00008636  00000+0  31420-3 0  9997
2 28415  97.3582  46.5136 0033151 168.4656 191.7351 15.27952404171184
CZ-2C R/B               
1 28480U 04046B   26011.82957107  .00000242  00000+0  10575-3 0  9993
2 28480  98.1999 290.3405 0138829 323.4797  35.6978 14.26964649100390
ARIANE 5 R/B            
1 28499U 04049H   26011.97295781  .00001391  00000+0  15962-3 0  9996
2 28499  98.2542 178.3436 0084481 174.1220 186.1006 14.85114625137378
CZ-2D R/B               
1 28738U 05024B   26011.98285182  .00034538  00000+0  50919-3 0  9991
2 28738  97.3629  25.2658 0003804 204.2791 155.8284 15.55316792130959
