CCSDS_OMM_VERS = 2.0
CREATION_DATE  = 
ORIGINATOR     = 

OBJECT_NAME    = IDEFIX & ARIANE 42P R/B
OBJECT_ID      = 2002-021B
CENTER_NAME    = EARTH
REF_FRAME      = TEME
TIME_SYSTEM    = UTC
MEAN_ELEMENT_THEORY = SGP/SGP4

EPOCH          = 2026-01-11T18:57:30.386592
MEAN_MOTION    = 14.30977277
ECCENTRICITY   = .00119235
INCLINATION    = 98.5816
RA_OF_ASC_NODE = 311.0963
ARG_OF_PERICENTER = 0.6842
MEAN_ANOMALY   = 359.4355

EPHEMERIS_TYPE = 0
CLASSIFICATION_TYPE = U
NORAD_CAT_ID   = 27422
ELEMENT_SET_NO = 999
REV_AT_EPOCH   = 23588
BSTAR          = .12728196E-3
MEAN_MOTION_DOT = .291E-5
MEAN_MOTION_DDOT = 0

CCSDS_OMM_VERS = 2.0
CREATION_DATE  = 
ORIGINATOR     = 

OBJECT_NAME    = AQUA
OBJECT_ID      = 2002-022A
CENTER_NAME    = EARTH
REF_FRAME      = TEME
TIME_SYSTEM    = UTC
MEAN_ELEMENT_THEORY = SGP/SGP4

EPOCH          = 2026-01-11T22:32:30.272928
MEAN_MOTION    = 14.61816932
ECCENTRICITY   = .00020293
INCLINATION    = 98.4078
RA_OF_ASC_NODE = 338.3153
ARG_OF_PERICENTER = 81.9924
MEAN_ANOMALY   = 314.0623

EPHEMERIS_TYPE = 0
CLASSIFICATION_TYPE = U
NORAD_CAT_ID   = 27424
ELEMENT_SET_NO = 999
REV_AT_EPOCH   = 26044
BSTAR          = .23211178E-3
MEAN_MOTION_DOT = .111E-4
MEAN_MOTION_DDOT = 0

CCSDS_OMM_VERS = 2.0
CREATION_DATE  = 
ORIGINATOR     = 

OBJECT_NAME    = CZ-4B R/B
OBJECT_ID      = 2002-024C
CENTER_NAME    = EARTH
REF_FRAME      = TEME
TIME_SYSTEM    = UTC
MEAN_ELEMENT_THEORY = SGP/SGP4

EPOCH          = 2026-01-11T23:48:32.910048
MEAN_MOTION    = 14.14535200
ECCENTRICITY   = .00501639
INCLINATION    = 98.8954
RA_OF_ASC_NODE = 65.6516
ARG_OF_PERICENTER = 182.9649
MEAN_ANOMALY   = 245.7601

EPHEMERIS_TYPE = 0
CLASSIFICATION_TYPE = U
NORAD_CAT_ID   = 27432
ELEMENT_SET_NO = 999
REV_AT_EPOCH   = 22122
BSTAR          = .42177125E-4
MEAN_MOTION_DOT = .37E-6
MEAN_MOTION_DDOT = 0

CCSDS_OMM_VERS = 2.0
CREATION_DATE  = 
ORIGINATOR     = 

OBJECT_NAME    = MIDORI II (ADEOS-II)
OBJECT_ID      = 2002-056A
CENTER_NAME    = EARTH
REF_FRAME      = TEME
TIME_SYSTEM    = UTC
MEAN_ELEMENT_THEORY = SGP/SGP4

EPOCH          = 2026-01-11T21:19:58.698048
MEAN_MOTION    = 14.29233688
ECCENTRICITY   = .00015676
INCLINATION    = 98.7677
RA_OF_ASC_NODE = 330.0102
ARG_OF_PERICENTER = 123.2737
MEAN_ANOMALY   = 236.8595

EPHEMERIS_TYPE = 0
CLASSIFICATION_TYPE = U
NORAD_CAT_ID   = 27597
ELEMENT_SET_NO = 999
REV_AT_EPOCH   = 20218
BSTAR          = .15716062E-3
MEAN_MOTION_DOT = .354E-5
MEAN_MOTION_DDOT = 0

CCSDS_OMM_VERS = 2.0
CREATION_DATE  = 
ORIGINATOR     = 

OBJECT_NAME    = H-2A R/B
OBJECT_ID      = 2002-056E
CENTER_NAME    = EARTH
REF_FRAME      = TEME
TIME_SYSTEM    = UTC
MEAN_ELEMENT_THEORY = SGP/SGP4

EPOCH          = 2026-01-11T21:36:33.199200
MEAN_MOTION    = 14.33709714
ECCENTRICITY   = .00697894
INCLINATION    = 98.3106
RA_OF_ASC_NODE = 334.4637
ARG_OF_PERICENTER = 331.7693
MEAN_ANOMALY   = 92.0792

EPHEMERIS_TYPE = 0
CLASSIFICATION_TYPE = U
NORAD_CAT_ID   = 27601
ELEMENT_SET_NO = 999
REV_AT_EPOCH   = 20597
BSTAR          = .15506344E-3
MEAN_MOTION_DOT = .4E-5
MEAN_MOTION_DDOT = 0

CCSDS_OMM_VERS = 2.0
CREATION_DATE  = 
ORIGINATOR     = 

OBJECT_NAME    = CZ-4B R/B
OBJECT_ID      = 2003-049C
CENTER_NAME    = EARTH
REF_FRAME      = TEME
TIME_SYSTEM    = UTC
MEAN_ELEMENT_THEORY = SGP/SGP4

EPOCH          = 2026-01-11T23:49:44.694624
MEAN_MOTION    = 14.54946113
ECCENTRICITY   = .00490703
INCLINATION    = 98.6813
RA_OF_ASC_NODE = 4.7040
ARG_OF_PERICENTER = 45.6871
MEAN_ANOMALY   = 314.8333

EPHEMERIS_TYPE = 0
CLASSIFICATION_TYPE = U
NORAD_CAT_ID   = 28059
ELEMENT_SET_NO = 999
REV_AT_EPOCH   = 17835
BSTAR          = .12244034E-3
MEAN_MOTION_DOT = .484E-5
MEAN_MOTION_DDOT = 0

CCSDS_OMM_VERS = 2.0
CREATION_DATE  = 
ORIGINATOR     = 

OBJECT_NAME    = CZ-2C R/B
OBJECT_ID      = 2004-012C
CENTER_NAME    = EARTH
REF_FRAME      = TEME
TIME_SYSTEM    = UTC
MEAN_ELEMENT_THEORY = SGP/SGP4

EPOCH          = 2026-01-11T21:15:06.033600
MEAN_MOTION    = 15.58219429
ECCENTRICITY   = .00169446
INCLINATION    = 97.7371
RA_OF_ASC_NODE = 72.0476
ARG_OF_PERICENTER = 156.7617
MEAN_ANOMALY   = 203.4407

EPHEMERIS_TYPE = 0
CLASSIFICATION_TYPE = U
NORAD_CAT_ID   = 28222
ELEMENT_SET_NO = 999
REV_AT_EPOCH   = 19541
BSTAR          = .62930482E-3
MEAN_MOTION_DOT = .47933E-3
MEAN_MOTION_DDOT = 0

CCSDS_OMM_VERS = 2.0
CREATION_DATE  = 
ORIGINATOR     = 

OBJECT_NAME    = SL-16 R/B
OBJECT_ID      = 2004-021B
CENTER_NAME    = EARTH
REF_FRAME      = TEME
TIME_SYSTEM    = UTC
MEAN_ELEMENT_THEORY = SGP/SGP4

EPOCH          = 2026-01-11T22:58:50.173824
MEAN_MOTION    = 14.14592295
ECCENTRICITY   = .00033105
INCLINATION    = 71.0026
RA_OF_ASC_NODE = 351.5490
ARG_OF_PERICENTER = 149.6573
MEAN_ANOMALY   = 210.4742

EPHEMERIS_TYPE = 0
CLASSIFICATION_TYPE = U
NORAD_CAT_ID   = 28353
ELEMENT_SET_NO = 999
REV_AT_EPOCH   = 11481
BSTAR          = .78618685E-4
MEAN_MOTION_DOT = .103E-5
MEAN_MOTION_DDOT = 0

CCSDS_OMM_VERS = 2.0
CREATION_DATE  = 
ORIGINATOR     = 

OBJECT_NAME    = CZ-4B R/B
OBJECT_ID      = 2004-035C
CENTER_NAME    = EARTH
REF_FRAME      = TEME
TIME_SYSTEM    = UTC
MEAN_ELEMENT_THEORY = SGP/SGP4

EPOCH          = 2026-01-11T13:28:40.758240
MEAN_MOTION    = 15.27952404
ECCENTRICITY   = .00331519
INCLINATION    = 97.3582
RA_OF_ASC_NODE = 46.5136
ARG_OF_PERICENTER = 168.4656
MEAN_ANOMALY   = 191.7351

EPHEMERIS_TYPE = 0
CLASSIFICATION_TYPE = U
NORAD_CAT_ID   = 28415
ELEMENT_SET_NO = 999
REV_AT_EPOCH   = 17118
BSTAR          = .31419781E-3
MEAN_MOTION_DOT = .8636E-4
MEAN_MOTION_DDOT = 0

CCSDS_OMM_VERS = 2.0
CREATION_DATE  = 
ORIGINATOR     = 

OBJECT_NAME    = CZ-2C R/B
OBJECT_ID      = 2004-046B
CENTER_NAME    = EARTH
REF_FRAME      = TEME
TIME_SYSTEM    = UTC
MEAN_ELEMENT_THEORY = SGP/SGP4

EPOCH          = 2026-01-11T19:54:34.940448
MEAN_MOTION    = 14.26964649
ECCENTRICITY   = .01388291
INCLINATION    = 98.1999
RA_OF_ASC_NODE = 290.3405
ARG_OF_PERICENTER = 323.4797
MEAN_ANOMALY   = 35.6978

EPHEMERIS_TYPE = 0
CLASSIFICATION_TYPE = U
NORAD_CAT_ID   = 28480
ELEMENT_SET_NO = 999
REV_AT_EPOCH   = 10039
BSTAR          = .10574717E-3
MEAN_MOTION_DOT = .242E-5
MEAN_MOTION_DDOT = 0

CCSDS_OMM_VERS = 2.0
CREATION_DATE  = 
ORIGINATOR     = 

OBJECT_NAME    = ARIANE 5 R/B
OBJECT_ID      = 2004-049H
CENTER_NAME    = EARTH
REF_FRAME      = TEME
TIME_SYSTEM    = UTC
MEAN_ELEMENT_THEORY = SGP/SGP4

EPOCH          = 2026-01-11T23:21:03.554784
MEAN_MOTION    = 14.85114625
ECCENTRICITY   = .00844817
INCLINATION    = 98.2542
RA_OF_ASC_NODE = 178.3436
ARG_OF_PERICENTER = 174.1220
MEAN_ANOMALY   = 186.1006

EPHEMERIS_TYPE = 0
CLASSIFICATION_TYPE = U
NORAD_CAT_ID   = 28499
ELEMENT_SET_NO = 999
REV_AT_EPOCH   = 13737
BSTAR          = .15961843E-3
MEAN_MOTION_DOT = .1391E-4
MEAN_MOTION_DDOT = 0

CCSDS_OMM_VERS = 2.0
CREATION_DATE  = 
ORIGINATOR     = 

OBJECT_NAME    = CZ-2D R/B
OBJECT_ID      = 2005-024B
CENTER_NAME    = EARTH
REF_FRAME      = TEME
TIME_SYSTEM    = UTC
MEAN_ELEMENT_THEORY = SGP/SGP4

EPOCH          = 2026-01-11T23:35:18.397248
MEAN_MOTION    = 15.55316792
ECCENTRICITY   = .00038049
INCLINATION    = 97.3629
RA_OF_ASC_NODE = 25.2658
ARG_OF_PERICENTER = 204.2791
MEAN_ANOMALY   = 155.8284

EPHEMERIS_TYPE = 0
CLASSIFICATION_TYPE = U
NORAD_CAT_ID   = 28738
ELEMENT_SET_NO = 999
REV_AT_EPOCH   = 13095
BSTAR          = .50919195E-3
MEAN_MOTION_DOT = .34538E-3
MEAN_MOTION_DDOT = 0

